*******************************************************************************
JPL/HORIZONS                144 Vibilia (A875 LA)          2020-Jun-20 08:20:20
Rec #:     144 (+COV) Soln.date: 2020-May-20_00:59:42   # obs: 2642 (1905-2020)
 
IAU76/J2000 helio. ecliptic osc. elements (au, days, deg., period=Julian yrs):
 
  EPOCH=  2455644.5 ! 2011-Mar-24.00 (TDB)         Residual RMS= .34419
   EC= .235956004578323    QR= 2.02723707100927    TP= 2455401.901486001
   OM= 76.44081951715543   W=  293.3525968480313   IN= 4.808026244950916
   A= 2.653298871736352    MA= 55.32392089934581   ADIST= 3.279360672463434
   PER= 4.32203            N= .228047231           ANGMOM= .027229221
   DAN= 2.29127            DDN= 2.7641             L= 9.867016400000001
   B= -4.4133505           MOID= 1.03318           TP= 2010-Jul-24.4014860010
 
Asteroid physical parameters (km, seconds, rotational period in hours):
   GM= n.a.                RAD= 71.19              ROTPER= 13.819
   H= 8.1                  G= .170                 B-V= .727
                           ALBEDO= .0597           STYP= Ch
 
ASTEROID comments: 
1: soln ref.= JPL#99, OCC=0
2: source=ORB
*******************************************************************************
 
 
*******************************************************************************
Ephemeris / WWW_USER Sat Jun 20 08:20:20 2020 Pasadena, USA      / Horizons
*******************************************************************************
Target body name: 144 Vibilia (A875 LA)           {source: JPL#99}
Center body name: Solar System Barycenter (0)     {source: DE431}
Center-site name: BODY CENTER
*******************************************************************************
Start time      : A.D. 1969-Jun-28 00:00:00.0000 TDB
Stop  time      : A.D. 2071-May-04 00:00:00.0000 TDB
Step-size       : 7200 minutes
*******************************************************************************
Center geodetic : 0.00000000,0.00000000,0.0000000 {E-lon(deg),Lat(deg),Alt(km)}
Center cylindric: 0.00000000,0.00000000,0.0000000 {E-lon(deg),Dxy(km),Dz(km)}
Center radii    : (undefined)                                                  
Small perturbers: Yes                             {source: SB431-N16}
Output units    : AU-D
Output type     : GEOMETRIC cartesian states
Output format   : 2 (position and velocity)
Reference frame : Ecliptic of J2000.0
*******************************************************************************
Initial IAU76/J2000 heliocentric ecliptic osculating elements (au, days, deg.):
  EPOCH=  2455644.5 ! 2011-Mar-24.00 (TDB)         Residual RMS= .34419        
   EC= .235956004578323    QR= 2.02723707100927    TP= 2455401.901486001       
   OM= 76.44081951715543   W=  293.3525968480313   IN= 4.808026244950916       
  Equivalent ICRF heliocentric equatorial cartesian coordinates (au, au/d):
   X=-3.505648355485341E-02  Y= 2.196927216542573E+00  Z= 1.007547407734944E+00
  VX=-1.126285859781401E-02 VY= 1.771744264872030E-03 VZ= 1.822449382142930E-03
Asteroid physical parameters (km, seconds, rotational period in hours):        
   GM= n.a.                RAD= 71.19              ROTPER= 13.819              
   H= 8.1                  G= .170                 B-V= .727                   
                           ALBEDO= .0597           STYP= Ch                    
*******************************************************************************
            JDTDB,            Calendar Date (TDB),        delta-T,                      X,                      Y,                      Z,                     VX,                     VY,                     VZ,
******************************************************************************************************************************************************************************************************************
$$SOE
2476100.500000000, A.D. 2067-Mar-26 00:00:00.0000,      69.185650,  9.866390844572583E-01,  1.962232365093302E+00, -3.904520617617282E-02, -1.017086445194055E-02,  7.364370690497197E-03,  9.842772328208941E-04,
2476105.500000000, A.D. 2067-Mar-31 00:00:00.0000,      69.185666,  9.354469861734829E-01,  1.998365497151400E+00, -3.411077633172267E-02, -1.030447849884397E-02,  7.088677047519181E-03,  9.893683330165620E-04,
2476110.500000000, A.D. 2067-Apr-05 00:00:00.0000,      69.185670,  8.836091778536364E-01,  2.033117367343377E+00, -2.915277365882524E-02, -1.042916597008856E-02,  6.811922023973288E-03,  9.937089732696390E-04,
2476115.500000000, A.D. 2067-Apr-10 00:00:00.0000,      69.185662,  8.311700187503015E-01,  2.066483498732344E+00, -2.417491065480811E-02, -1.054503848864002E-02,  6.534435347685824E-03,  9.973152041814074E-04,
2476120.500000000, A.D. 2067-Apr-15 00:00:00.0000,      69.185644,  7.781732784378108E-01,  2.098461028869115E+00, -1.918081770877841E-02, -1.065222009829850E-02,  6.256533034727900E-03,  1.000203800679312E-03,
2476125.500000000, A.D. 2067-Apr-20 00:00:00.0000,      69.185613,  7.246620777536258E-01,  2.129048640550044E+00, -1.417403974278685E-02, -1.075084605020399E-02,  5.978517132711463E-03,  1.002392157632372E-03,
2476130.500000000, A.D. 2067-Apr-25 00:00:00.0000,      69.185569,  6.706788357308897E-01,  2.158246491535347E+00, -9.158033363626722E-03, -1.084106162088671E-02,  5.700675560501301E-03,  1.003898190032967E-03,
2476135.500000000, A.D. 2067-Apr-30 00:00:00.0000,      69.185513,  6.162652223501667E-01,  2.186056143690808E+00, -4.136164501747354E-03, -1.092302096741284E-02,  5.423282036332865E-03,  1.004740238015650E-03,
2476140.500000000, A.D. 2067-May-05 00:00:00.0000,      69.185446,  5.614621169107400E-01,  2.212480491970694E+00,  8.882934877826015E-04, -1.099688602555751E-02,  5.146596084594509E-03,  1.004936977105268E-03,
2476145.500000000, A.D. 2067-May-10 00:00:00.0000,      69.185370,  5.063095717893940E-01,  2.237523693615973E+00,  5.912161289671108E-03, -1.106282545747143E-02,  4.870863114544242E-03,  1.004507334155170E-03,
2476150.500000000, A.D. 2067-May-15 00:00:00.0000,      69.185285,  4.508467813318476E-01,  2.261191097918946E+00,  1.093235468660862E-02, -1.112101365089293E-02,  4.596314567276166E-03,  1.003470408872136E-03,
2476155.500000000, A.D. 2067-May-20 00:00:00.0000,      69.185191,  3.951120556194925E-01,  2.283489176877072E+00,  1.594588523850375E-02, -1.117162977005941E-02,  4.323168122719810E-03,  1.001845400703982E-03,
2476160.500000000, A.D. 2067-May-25 00:00:00.0000,      69.185087,  3.391427988473654E-01,  2.304425457011722E+00,  2.094986060980758E-02, -1.121485686075479E-02,  4.051627957294932E-03,  9.996515412102989E-04,
2476165.500000000, A.D. 2067-May-30 00:00:00.0000,      69.184974,  2.829754920372832E-01,  2.324008452587518E+00,  2.594148457253298E-02, -1.125088101135753E-02,  3.781885045498366E-03,  9.969080319624571E-04,
2476170.500000000, A.D. 2067-Jun-04 00:00:00.0000,      69.184854,  2.266456798048344E-01,  2.342247600437245E+00,  3.091805671237831E-02, -1.127989057022409E-02,  3.514117499575789E-03,  9.936339878585812E-04,
2476175.500000000, A.D. 2067-Jun-09 00:00:00.0000,      69.184730,  1.701879608993981E-01,  2.359153196568202E+00,  3.587697186461770E-02, -1.130207541898378E-02,  3.248490941467036E-03,  9.898483856851526E-04,
2476180.500000000, A.D. 2067-Jun-14 00:00:00.0000,      69.184602,  1.136359822396430E-01,  2.374736334697197E+00,  4.081571930552346E-02, -1.131762630087199E-02,  2.985158901404163E-03,  9.855700177352239E-04,
2476185.500000000, A.D. 2067-Jun-19 00:00:00.0000,      69.184469,  5.702243617233948E-02,  2.389008846834036E+00,  4.573188172408495E-02, -1.132673420282865E-02,  2.724263237855708E-03,  9.808174502715897E-04,
2476190.500000000, A.D. 2067-Jun-24 00:00:00.0000,      69.184332,  3.790606895844489E-04,  2.401983246007642E+00,  5.062313399767401E-02, -1.132958978973880E-02,  2.465934573828253E-03,  9.756089866015742E-04,
2476195.500000000, A.D. 2067-Jun-29 00:00:00.0000,      69.184191, -5.626335765166524E-02,  2.413672671204734E+00,  5.548724179409403E-02, -1.132638288894386E-02,  2.210292744828350E-03,  9.699626345127537E-04,
2476200.500000000, A.D. 2067-Jul-04 00:00:00.0000,      69.184049, -1.128749783541811E-01,  2.424090834568252E+00,  6.032206002117019E-02, -1.131730202304956E-02,  1.957447254102101E-03,  9.638960778108768E-04,
2476205.500000000, A.D. 2067-Jul-09 00:00:00.0000,      69.183908, -1.694268993857844E-01,  2.433251970881846E+00,  6.512553114375391E-02, -1.130253398909775E-02,  1.707497731204408E-03,  9.574266517063227E-04,
2476210.500000000, A.D. 2067-Jul-14 00:00:00.0000,      69.183769, -2.258911475926015E-01,  2.441170789348475E+00,  6.989568338678430E-02, -1.128226348226812E-02,  1.460534390599903E-03,  9.505713218126864E-04,
2476215.500000000, A.D. 2067-Jul-19 00:00:00.0000,      69.183631, -2.822406673383620E-01,  2.447862427656858E+00,  7.463062884191345E-02, -1.125667276227584E-02,  1.216638487869913E-03,  9.433466665390041E-04,
2476220.500000000, A.D. 2067-Jul-24 00:00:00.0000,      69.183494, -3.384493075780723E-01,  2.453342408319690E+00,  7.932856149412078E-02, -1.122594136030801E-02,  9.758827720330039E-04,  9.357688626504560E-04,
2476225.500000000, A.D. 2067-Jul-29 00:00:00.0000,      69.183359, -3.944918075616118E-01,  2.457626597261313E+00,  8.398775518349068E-02, -1.119024582345979E-02,  7.383319327139579E-04,  9.278536737259328E-04,
2476230.500000000, A.D. 2067-Aug-03 00:00:00.0000,      69.183230, -4.503437813457655E-01,  2.460731164623010E+00,  8.860656151595839E-02, -1.114975949317833E-02,  5.040430394236002E-04,  9.196164412563339E-04,
2476235.500000000, A.D. 2067-Aug-08 00:00:00.0000,      69.183108, -5.059817012794375E-01,  2.462672547738359E+00,  9.318340773588461E-02, -1.110465231597107E-02,  2.730659700774095E-04,  9.110720782592663E-04,
